NORAD_CAT_ID,OBJECT_NAME,OBJECT_TYPE,EPOCH,MEAN_MOTION,ECCENTRICITY,INCLINATION,RA_OF_ASC_NODE,ARG_OF_PERICENTER,MEAN_ANOMALY,BSTAR,MEAN_MOTION_DOT,MEAN_MOTION_DDOT,TLE_LINE0,TLE_LINE1,TLE_LINE2,SEMIMAJOR_AXIS,PERIOD,APOGEE,PERIGEE,DECAYED
55767.0,STARLINK-5606,PAYLOAD,2023-11-18 14:43:11,14.98333291,0.0002598,69.9997,187.8148,270.6644,89.4217,5.8697e-08,-9.2e-07,0.0,0 STARLINK-5606,1 55767U 23028AC  23322.61332947 -.00000092  00000-0  58697-7 0  9996,2 55767  69.9997 187.8148 0002598 270.6644  89.4217 14.98333291 40391,6950.183,96.107,573.853,570.242,0.0
55767.0,STARLINK-5606,PAYLOAD,2023-11-18 21:07:43,14.98333928,0.000259,69.9996,187.1416,269.735,90.3512,5.3995e-06,-2.9e-07,0.0,0 STARLINK-5606,1 55767U 23028AC  23322.88036807 -.00000029  00000-0  53995-5 0  9995,2 55767  69.9996 187.1416 0002590 269.7350  90.3512 14.98333928 40437,6950.181,96.107,573.846,570.246,0.0
55767.0,STARLINK-5606,PAYLOAD,2023-11-19 08:20:39,14.98342855,0.0002654,70.0006,185.9636,270.413,89.6725,8.873e-05,9.66e-06,0.0,0 STARLINK-5606,1 55767U 23028AC  23323.34767769  .00000966  00000-0  88730-4 0  9998,2 55767  70.0006 185.9636 0002654 270.4130  89.6725 14.98342855 40502,6950.153,96.106,573.863,570.174,0.0
55767.0,STARLINK-5606,PAYLOAD,2023-11-19 21:09:43,14.98347462,0.0002752,69.9993,184.6169,270.0767,90.0076,0.00013596,1.53e-05,0.0,0 STARLINK-5606,1 55767U 23028AC  23323.88174780  .00001530  00000-0  13596-3 0  9997,2 55767  69.9993 184.6169 0002752 270.0767  90.0076 14.98347462 40584,6950.139,96.106,573.917,570.091,0.0
55767.0,STARLINK-5606,PAYLOAD,2023-11-20 08:22:39,14.98337693,0.000269,69.9993,183.4387,274.2537,85.8314,1.8612e-05,1.29e-06,0.0,0 STARLINK-5606,1 55767U 23028AC  23324.34907334  .00000129  00000-0  18612-4 0  9996,2 55767  69.9993 183.4387 0002690 274.2537  85.8314 14.98337693 40644,6950.169,96.107,573.904,570.165,0.0
55767.0,STARLINK-5606,PAYLOAD,2023-11-20 19:35:37,14.98326926,0.0002627,69.9993,182.2582,272.18,87.9058,-4.6933e-05,-6.53e-06,0.0,0 STARLINK-5606,1 55767U 23028AC  23324.81640049 -.00000653  00000-0 -46933-4 0  9996,2 55767  69.9993 182.2582 0002627 272.1800  87.9058 14.98326926 40711,6950.202,96.107,573.893,570.242,0.0
55767.0,STARLINK-5606,PAYLOAD,2023-11-20 21:11:45,14.9832767,0.0002534,69.9994,182.09,267.5719,92.515,-9.9851e-05,-1.284e-05,0.0,0 STARLINK-5606,1 55767U 23028AC  23324.88316156 -.00001284  00000-0 -99851-4 0  9990,2 55767  69.9994 182.0900 0002534 267.5719  92.5150 14.98327670 40732,6950.2,96.107,573.826,570.304,0.0
55767.0,STARLINK-5606,PAYLOAD,2023-11-21 08:24:41,14.98327848,0.0002846,69.9985,180.9136,271.7938,88.2895,-0.0002087,-2.582e-05,0.0,0 STARLINK-5606,1 55767U 23028AC  23325.35048450 -.00002582  00000-0 -20870-3 0  9998,2 55767  69.9985 180.9136 0002846 271.7938  88.2895 14.98327848 40809,6950.2,96.107,574.043,570.087,0.0
55767.0,STARLINK-5606,PAYLOAD,2023-11-21 21:13:46,14.98327747,0.0002697,69.9989,179.5668,270.9294,89.1556,-0.00020119,-2.492e-05,0.0,0 STARLINK-5606,1 55767U 23028AC  23325.88456524 -.00002492  00000-0 -20119-3 0  9997,2 55767  69.9989 179.5668 0002697 270.9294  89.1556 14.98327747 40887,6950.2,96.107,573.939,570.19,0.0
55767.0,STARLINK-5606,PAYLOAD,2023-11-22 00:26:02,14.98329998,0.0002753,69.9988,179.2303,270.7321,89.3522,-0.00016898,-2.109e-05,0.0,0 STARLINK-5606,1 55767U 23028AC  23326.01808297 -.00002109  00000-0 -16898-3 0  9995,2 55767  69.9988 179.2303 0002753 270.7321  89.3522 14.98329998 40897,6950.193,96.107,573.971,570.145,0.0
55767.0,STARLINK-5606,PAYLOAD,2023-11-22 14:51:15,14.98319745,0.0002729,69.9988,177.7158,274.6756,85.4092,3.9051e-05,3.73e-06,0.0,0 STARLINK-5606,1 55767U 23028AC  23326.61892565  .00000373  00000-0  39051-4 0  9998,2 55767  69.9988 177.7158 0002729 274.6756  85.4092 14.98319745 40995,6950.225,96.108,573.986,570.193,0.0
55767.0,STARLINK-5606,PAYLOAD,2023-11-22 21:15:47,14.98341532,0.0002453,69.9987,177.0423,275.3456,84.7424,-0.000226,-2.789e-05,0.0,0 STARLINK-5606,1 55767U 23028AC  23326.88596078 -.00002789  00000-0 -22600-3 0  9993,2 55767  69.9987 177.0423 0002453 275.3456  84.7424 14.98341532 41037,6950.157,96.106,573.727,570.317,0.0
55767.0,STARLINK-5606,PAYLOAD,2023-11-23 00:28:03,14.98325298,0.0002696,69.9988,176.7055,273.3127,86.7723,8.9979e-05,9.81e-06,0.0,0 STARLINK-5606,1 55767U 23028AC  23327.01948270  .00000981  00000-0  89979-4 0  9997,2 55767  69.9988 176.7055 0002696 273.3127  86.7723 14.98325298 41043,6950.207,96.107,573.946,570.199,0.0
55767.0,STARLINK-5606,PAYLOAD,2023-11-23 21:17:48,14.98321777,0.0002582,69.9988,174.5167,271.8371,88.2493,5.6643e-05,5.83e-06,0.0,0 STARLINK-5606,1 55767U 23028AC  23327.88737011  .00000583  00000-0  56643-4 0  9991,2 55767  69.9988 174.5167 0002582 271.8371  88.2493 14.98321777 41185,6950.218,96.108,573.878,570.289,0.0
55767.0,STARLINK-5606,PAYLOAD,2023-11-24 00:30:04,14.9832296,0.0002578,69.9989,174.1801,271.9081,88.1783,6.638e-05,6.99e-06,0.0,0 STARLINK-5606,1 55767U 23028AC  23328.02088968  .00000699  00000-0  66380-4 0  9995,2 55767  69.9989 174.1801 0002578 271.9081  88.1783 14.98322960 41198,6950.215,96.107,573.871,570.288,0.0
55767.0,STARLINK-5606,PAYLOAD,2023-11-24 13:19:09,14.9833091,0.0002596,69.9987,172.8337,267.118,92.9682,1.1962e-05,5e-07,0.0,0 STARLINK-5606,1 55767U 23028AC  23328.55496720  .00000050  00000-0  11962-4 0  9999,2 55767  69.9987 172.8337 0002596 267.1180  92.9682 14.98330910 41287,6950.19,96.107,573.859,570.251,0.0
55767.0,STARLINK-5606,PAYLOAD,2023-11-24 19:43:41,14.98331854,0.0002578,69.9987,172.1605,264.7831,95.3034,2.2983e-05,1.81e-06,0.0,0 STARLINK-5606,1 55767U 23028AC  23328.82200584  .00000181  00000-0  22983-4 0  9990,2 55767  69.9987 172.1605 0002578 264.7831  95.3034 14.98331854 41314,6950.187,96.107,573.844,570.26,0.0
55767.0,STARLINK-5606,PAYLOAD,2023-11-24 21:19:49,14.98332031,0.0002577,69.9987,171.9922,265.0121,95.0744,2.474e-05,2.02e-06,0.0,0 STARLINK-5606,1 55767U 23028AC  23328.88876561  .00000202  00000-0  24740-4 0  9997,2 55767  69.9987 171.9922 0002577 265.0121  95.0744 14.98332031 41333,6950.187,96.107,573.843,570.261,0.0
55767.0,STARLINK-5606,PAYLOAD,2023-11-24 22:55:57,14.98332201,0.0002582,69.9987,171.8239,265.544,94.5424,2.5861e-05,2.16e-06,0.0,0 STARLINK-5606,1 55767U 23028AC  23328.95552540  .00000216  00000-0  25861-4 0  9993,2 55767  69.9987 171.8239 0002582 265.5440  94.5424 14.98332201 41347,6950.186,96.107,573.846,570.257,0.0
55767.0,STARLINK-5606,PAYLOAD,2023-11-25 21:21:50,14.98331766,0.0002498,69.9987,169.4669,259.391,100.6968,3.9636e-05,3.8e-06,0.0,0 STARLINK-5606,1 55767U 23028AC  23329.89016408  .00000380  00000-0  39636-4 0  9992,2 55767  69.9987 169.4669 0002498 259.3910 100.6968 14.98331766 41488,6950.187,96.107,573.789,570.316,0.0
55767.0,STARLINK-5606,PAYLOAD,2023-11-26 13:23:10,14.98333427,0.0002415,69.9985,167.783,260.5811,99.5075,-1.8472e-05,-3.13e-06,0.0,0 STARLINK-5606,1 55767U 23028AC  23330.55776390 -.00000313  00000-0 -18472-4 0  9993,2 55767  69.9985 167.7830 0002415 260.5811  99.5075 14.98333427 41582,6950.182,96.107,573.726,570.369,0.0
55767.0,STARLINK-5606,PAYLOAD,2023-11-26 19:47:43,14.98331859,0.0002377,69.9991,167.1097,252.7129,107.377,-3.0858e-05,-4.61e-06,0.0,0 STARLINK-5606,1 55767U 23028AC  23330.82480445 -.00000461  00000-0 -30858-4 0  9992,2 55767  69.9991 167.1097 0002377 252.7129 107.3770 14.98331859 41611,6950.187,96.107,573.704,570.4,0.0
55767.0,STARLINK-5606,PAYLOAD,2023-11-26 21:23:51,14.98330451,0.0002444,69.999,166.9414,255.5942,104.4946,-5.1953e-05,-7.13e-06,0.0,0 STARLINK-5606,1 55767U 23028AC  23330.89156589 -.00000713  00000-0 -51953-4 0  9997,2 55767  69.9990 166.9414 0002444 255.5942 104.4946 14.98330451 41631,6950.191,96.107,573.755,570.358,0.0
55767.0,STARLINK-5606,PAYLOAD,2023-11-27 15:01:19,14.98330791,0.0002523,69.9988,165.0901,263.6936,96.3936,-1.386e-05,-2.58e-06,0.0,0 STARLINK-5606,1 55767U 23028AC  23331.62592405 -.00000258  00000-0 -13860-4 0  9999,2 55767  69.9988 165.0901 0002523 263.6936  96.3936 14.98330791 41747,6950.19,96.107,573.809,570.302,0.0
55767.0,STARLINK-5606,PAYLOAD,2023-11-27 21:25:52,14.98330465,0.0002457,69.999,164.4173,262.4268,97.6612,-1.5995e-05,-2.84e-06,0.0,0 STARLINK-5606,1 55767U 23028AC  23331.89296443 -.00000284  00000-0 -15995-4 0  9991,2 55767  69.9990 164.4173 0002457 262.4268  97.6612 14.98330465 41782,6950.191,96.107,573.764,570.349,0.0
55767.0,STARLINK-5606,PAYLOAD,2023-11-27 23:02:00,14.98330443,0.0002441,69.9991,164.2493,262.1443,97.9439,-1.5799e-05,-2.81e-06,0.0,0 STARLINK-5606,1 55767U 23028AC  23331.95972441 -.00000281  00000-0 -15799-4 0  9996,2 55767  69.9991 164.2493 0002441 262.1443  97.9439 14.98330443 41787,6950.192,96.107,573.753,570.36,0.0
55767.0,STARLINK-5606,PAYLOAD,2023-11-28 15:03:20,14.98331733,0.0002615,69.999,162.5659,266.7554,93.3306,8.1143e-06,4e-08,0.0,0 STARLINK-5606,1 55767U 23028AC  23332.62732207  .00000004  00000-0  81143-5 0  9993,2 55767  69.9990 162.5659 0002615 266.7554  93.3306 14.98331733 41895,6950.188,96.107,573.87,570.235,0.0
55767.0,STARLINK-5606,PAYLOAD,2023-11-28 19:51:44,14.98329711,0.0002732,69.9992,162.0611,269.2812,90.8034,5.1324e-06,-3.2e-07,0.0,0 STARLINK-5606,1 55767U 23028AC  23332.82760326 -.00000032  00000-0  51324-5 0  9998,2 55767  69.9992 162.0611 0002732 269.2812  90.8034 14.98329711 41922,6950.194,96.107,573.958,570.16,0.0
55767.0,STARLINK-5606,PAYLOAD,2023-11-28 23:04:00,14.98331943,0.000265,69.9993,161.7248,267.7427,92.3429,-5.482e-06,-1.58e-06,0.0,0 STARLINK-5606,1 55767U 23028AC  23332.96112204 -.00000158  00000-0 -54820-5 0  9993,2 55767  69.9993 161.7248 0002650 267.7427  92.3429 14.98331943 41935,6950.187,96.107,573.894,570.21,0.0
55767.0,STARLINK-5606,PAYLOAD,2023-11-29 15:05:21,14.98330947,0.000272,69.9994,160.0421,270.1928,89.8919,1.13e-05,4.2e-07,0.0,0 STARLINK-5606,1 55767U 23028AC  23333.62872186  .00000042  00000-0  11300-4 0  9994,2 55767  69.9994 160.0421 0002720 270.1928  89.8919 14.98330947 42044,6950.19,96.107,573.945,570.165,0.0
